ONEWEB-0521             
1 54139U 22138AC  26106.82721278  .00000027  00000+0  35244-4 0  9990
2 54139  87.9176 317.1866 0001664  94.4361 265.6961 13.19727087168676
ONEWEB-0522             
1 54140U 22138AD  26106.57923392 -.00000035  00000+0 -11993-3 0  9990
2 54140  87.9176 317.2378 0001912  86.1287 274.0064 13.19723606168680
ONEWEB-0523             
1 54141U 22138AE  26106.74322168  .00000026  00000+0  31640-4 0  9994
2 54141  87.9139 286.7045 0001024 105.7944 254.3302 13.20769579171190
ONEWEB-0524             
1 54142U 22138AF  26106.73218218  .00000042  00000+0  72158-4 0  9991
2 54142  87.9138 286.7039 0001316  63.2479 296.8789 13.20774540171192
ONEWEB-0525             
1 54143U 22138AG  26106.59818561 -.00000173  00000+0 -46490-3 0  9999
2 54143  87.9164 317.2448 0002053  84.0808 276.0558 13.19724529168709
ONEWEB-0526             
1 54144U 22138AH  26106.85881631 -.00000002  00000+0 -38178-4 0  9993
2 54144  87.9172 317.1914 0001818  83.6202 276.5137 13.19723602168717
ONEWEB-0529             
1 54145U 22138AJ  26106.55870142  .00000005  00000+0 -20367-4 0  9999
2 54145  87.9164 317.2650 0001985  83.0392 277.0967 13.19723415168692
ONEWEB-0531             
1 54146U 22138AK  26106.79373332 -.00000004  00000+0 -41159-4 0  9997
2 54146  87.9138 286.6905 0000869  86.2746 273.8486 13.20772696171202
ONEWEB-0535             
1 54147U 22138AL  26106.59186632 -.00000051  00000+0 -15955-3 0  9997
2 54147  87.9176 317.2380 0001469  92.5542 267.5759 13.19723805168715
ONEWEB-0536             
1 54148U 22138AM  26106.78111124 -.00000068  00000+0 -20032-3 0  9993
2 54148  87.9121 286.7225 0000803  75.1813 284.9409 13.20772154171197
ONEWEB-0527             
1 54642U 22166A   26106.70525824  .00000055  00000+0  10166-3 0  9992
2 54642  87.9197 256.2405 0001813  96.5495 263.5845 13.21825234163418
ONEWEB-0528             
1 54643U 22166B   26106.71112321 -.00000057  00000+0 -17006-3 0  9992
2 54643  87.9197 256.2432 0002007  93.1349 267.0015 13.21823573163429
ONEWEB-0539             
1 54644U 22166C   26106.44706558  .00000100  00000+0  21056-3 0  9991
2 54644  87.9205 256.2640 0001994 104.8183 255.3172 13.21826036163387
ONEWEB-0540             
1 54645U 22166D   26106.83241270  .00000009  00000+0 -92902-5 0  9999
2 54645  87.9198 256.2215 0001858 102.0318 258.1024 13.21826125163427
ONEWEB-0542             
1 54646U 22166E   26106.45715661  .00000018  00000+0  12082-4 0  9997
2 54646  87.9205 256.2595 0001970 107.4691 252.6658 13.21826491163389
ONEWEB-0545             
1 54647U 22166F   26106.64889310  .00000042  00000+0  71220-4 0  9998
2 54647  87.9199 256.2379 0002003 113.8695 246.2649 13.21823861163371
