[{"OBJECT_NAME":"ONEWEB-0521","OBJECT_ID":"2022-138AC","EPOCH":"2026-04-16T19:51:11.184192","MEAN_MOTION":13.19727087,"ECCENTRICITY":0.0001664,"INCLINATION":87.9176,"RA_OF_ASC_NODE":317.1866,"ARG_OF_PERICENTER":94.4361,"MEAN_ANOMALY":265.6961,"EPHEMERIS_TYPE":0,"CLASSIFICATION_TYPE":"U","NORAD_CAT_ID":54139,"ELEMENT_SET_NO":999,"REV_AT_EPOCH":16867,"BSTAR":3.5244e-05,"MEAN_MOTION_DOT":2.7e-07,"MEAN_MOTION_DDOT":0.0},{"OBJECT_NAME":"ONEWEB-0522","OBJECT_ID":"2022-138AD","EPOCH":"2026-04-16T13:54:05.810688","MEAN_MOTION":13.19723606,"ECCENTRICITY":0.0001912,"INCLINATION":87.9176,"RA_OF_ASC_NODE":317.2378,"ARG_OF_PERICENTER":86.1287,"MEAN_ANOMALY":274.0064,"EPHEMERIS_TYPE":0,"CLASSIFICATION_TYPE":"U","NORAD_CAT_ID":54140,"ELEMENT_SET_NO":999,"REV_AT_EPOCH":16868,"BSTAR":-0.00011993,"MEAN_MOTION_DOT":-3.5e-07,"MEAN_MOTION_DDOT":0.0},{"OBJECT_NAME":"ONEWEB-0523","OBJECT_ID":"2022-138AE","EPOCH":"2026-04-16T17:50:14.353152","MEAN_MOTION":13.20769579,"ECCENTRICITY":0.0001024,"INCLINATION":87.9139,"RA_OF_ASC_NODE":286.7045,"ARG_OF_PERICENTER":105.7944,"MEAN_ANOMALY":254.3302,"EPHEMERIS_TYPE":0,"CLASSIFICATION_TYPE":"U","NORAD_CAT_ID":54141,"ELEMENT_SET_NO":999,"REV_AT_EPOCH":17119,"BSTAR":3.164e-05,"MEAN_MOTION_DOT":2.6e-07,"MEAN_MOTION_DDOT":0.0},{"OBJECT_NAME":"ONEWEB-0524","OBJECT_ID":"2022-138AF","EPOCH":"2026-04-16T17:34:20.540352","MEAN_MOTION":13.2077454,"ECCENTRICITY":0.0001316,"INCLINATION":87.9138,"RA_OF_ASC_NODE":286.7039,"ARG_OF_PERICENTER":63.2479,"MEAN_ANOMALY":296.8789,"EPHEMERIS_TYPE":0,"CLASSIFICATION_TYPE":"U","NORAD_CAT_ID":54142,"ELEMENT_SET_NO":999,"REV_AT_EPOCH":17119,"BSTAR":7.215800000000001e-05,"MEAN_MOTION_DOT":4.2e-07,"MEAN_MOTION_DDOT":0.0},{"OBJECT_NAME":"ONEWEB-0525","OBJECT_ID":"2022-138AG","EPOCH":"2026-04-16T14:21:23.236704","MEAN_MOTION":13.19724529,"ECCENTRICITY":0.0002053,"INCLINATION":87.9164,"RA_OF_ASC_NODE":317.2448,"ARG_OF_PERICENTER":84.0808,"MEAN_ANOMALY":276.0558,"EPHEMERIS_TYPE":0,"CLASSIFICATION_TYPE":"U","NORAD_CAT_ID":54143,"ELEMENT_SET_NO":999,"REV_AT_EPOCH":16870,"BSTAR":-0.00046489999999999997,"MEAN_MOTION_DOT":-1.73e-06,"MEAN_MOTION_DDOT":0.0},{"OBJECT_NAME":"ONEWEB-0526","OBJECT_ID":"2022-138AH","EPOCH":"2026-04-16T20:36:41.729184","MEAN_MOTION":13.19723602,"ECCENTRICITY":0.0001818,"INCLINATION":87.9172,"RA_OF_ASC_NODE":317.1914,"ARG_OF_PERICENTER":83.6202,"MEAN_ANOMALY":276.5137,"EPHEMERIS_TYPE":0,"CLASSIFICATION_TYPE":"U","NORAD_CAT_ID":54144,"ELEMENT_SET_NO":999,"REV_AT_EPOCH":16871,"BSTAR":-3.8178e-05,"MEAN_MOTION_DOT":-2e-08,"MEAN_MOTION_DDOT":0.0},{"OBJECT_NAME":"ONEWEB-0529","OBJECT_ID":"2022-138AJ","EPOCH":"2026-04-16T13:24:31.802688","MEAN_MOTION":13.19723415,"ECCENTRICITY":0.0001985,"INCLINATION":87.9164,"RA_OF_ASC_NODE":317.265,"ARG_OF_PERICENTER":83.0392,"MEAN_ANOMALY":277.0967,"EPHEMERIS_TYPE":0,"CLASSIFICATION_TYPE":"U","NORAD_CAT_ID":54145,"ELEMENT_SET_NO":999,"REV_AT_EPOCH":16869,"BSTAR":-2.0367e-05,"MEAN_MOTION_DOT":5e-08,"MEAN_MOTION_DDOT":0.0},{"OBJECT_NAME":"ONEWEB-0531","OBJECT_ID":"2022-138AK","EPOCH":"2026-04-16T19:02:58.558848","MEAN_MOTION":13.20772696,"ECCENTRICITY":8.69e-05,"INCLINATION":87.9138,"RA_OF_ASC_NODE":286.6905,"ARG_OF_PERICENTER":86.2746,"MEAN_ANOMALY":273.8486,"EPHEMERIS_TYPE":0,"CLASSIFICATION_TYPE":"U","NORAD_CAT_ID":54146,"ELEMENT_SET_NO":999,"REV_AT_EPOCH":17120,"BSTAR":-4.1159000000000004e-05,"MEAN_MOTION_DOT":-4e-08,"MEAN_MOTION_DDOT":0.0},{"OBJECT_NAME":"ONEWEB-0535","OBJECT_ID":"2022-138AL","EPOCH":"2026-04-16T14:12:17.250048","MEAN_MOTION":13.19723805,"ECCENTRICITY":0.0001469,"INCLINATION":87.9176,"RA_OF_ASC_NODE":317.238,"ARG_OF_PERICENTER":92.5542,"MEAN_ANOMALY":267.5759,"EPHEMERIS_TYPE":0,"CLASSIFICATION_TYPE":"U","NORAD_CAT_ID":54147,"ELEMENT_SET_NO":999,"REV_AT_EPOCH":16871,"BSTAR":-0.00015955,"MEAN_MOTION_DOT":-5.1e-07,"MEAN_MOTION_DDOT":0.0},{"OBJECT_NAME":"ONEWEB-0536","OBJECT_ID":"2022-138AM","EPOCH":"2026-04-16T18:44:48.011136","MEAN_MOTION":13.20772154,"ECCENTRICITY":8.03e-05,"INCLINATION":87.9121,"RA_OF_ASC_NODE":286.7225,"ARG_OF_PERICENTER":75.1813,"MEAN_ANOMALY":284.9409,"EPHEMERIS_TYPE":0,"CLASSIFICATION_TYPE":"U","NORAD_CAT_ID":54148,"ELEMENT_SET_NO":999,"REV_AT_EPOCH":17119,"BSTAR":-0.00020032,"MEAN_MOTION_DOT":-6.8e-07,"MEAN_MOTION_DDOT":0.0},{"OBJECT_NAME":"ONEWEB-0527","OBJECT_ID":"2022-166A","EPOCH":"2026-04-16T16:55:34.311936","MEAN_MOTION":13.21825234,"ECCENTRICITY":0.0001813,"INCLINATION":87.9197,"RA_OF_ASC_NODE":256.2405,"ARG_OF_PERICENTER":96.5495,"MEAN_ANOMALY":263.5845,"EPHEMERIS_TYPE":0,"CLASSIFICATION_TYPE":"U","NORAD_CAT_ID":54642,"ELEMENT_SET_NO":999,"REV_AT_EPOCH":16341,"BSTAR":0.00010166,"MEAN_MOTION_DOT":5.5e-07,"MEAN_MOTION_DDOT":0.0},{"OBJECT_NAME":"ONEWEB-0528","OBJECT_ID":"2022-166B","EPOCH":"2026-04-16T17:04:01.045344","MEAN_MOTION":13.21823573,"ECCENTRICITY":0.0002007,"INCLINATION":87.9197,"RA_OF_ASC_NODE":256.2432,"ARG_OF_PERICENTER":93.1349,"MEAN_ANOMALY":267.0015,"EPHEMERIS_TYPE":0,"CLASSIFICATION_TYPE":"U","NORAD_CAT_ID":54643,"ELEMENT_SET_NO":999,"REV_AT_EPOCH":16342,"BSTAR":-0.00017005999999999998,"MEAN_MOTION_DOT":-5.7e-07,"MEAN_MOTION_DDOT":0.0},{"OBJECT_NAME":"ONEWEB-0539","OBJECT_ID":"2022-166C","EPOCH":"2026-04-16T10:43:46.466112","MEAN_MOTION":13.21826036,"ECCENTRICITY":0.0001994,"INCLINATION":87.9205,"RA_OF_ASC_NODE":256.264,"ARG_OF_PERICENTER":104.8183,"MEAN_ANOMALY":255.3172,"EPHEMERIS_TYPE":0,"CLASSIFICATION_TYPE":"U","NORAD_CAT_ID":54644,"ELEMENT_SET_NO":999,"REV_AT_EPOCH":16338,"BSTAR":0.00021056,"MEAN_MOTION_DOT":1e-06,"MEAN_MOTION_DDOT":0.0},{"OBJECT_NAME":"ONEWEB-0540","OBJECT_ID":"2022-166D","EPOCH":"2026-04-16T19:58:40.457280","MEAN_MOTION":13.21826125,"ECCENTRICITY":0.0001858,"INCLINATION":87.9198,"RA_OF_ASC_NODE":256.2215,"ARG_OF_PERICENTER":102.0318,"MEAN_ANOMALY":258.1024,"EPHEMERIS_TYPE":0,"CLASSIFICATION_TYPE":"U","NORAD_CAT_ID":54645,"ELEMENT_SET_NO":999,"REV_AT_EPOCH":16342,"BSTAR":-9.2902e-06,"MEAN_MOTION_DOT":9e-08,"MEAN_MOTION_DDOT":0.0},{"OBJECT_NAME":"ONEWEB-0542","OBJECT_ID":"2022-166E","EPOCH":"2026-04-16T10:58:18.331104","MEAN_MOTION":13.21826491,"ECCENTRICITY":0.000197,"INCLINATION":87.9205,"RA_OF_ASC_NODE":256.2595,"ARG_OF_PERICENTER":107.4691,"MEAN_ANOMALY":252.6658,"EPHEMERIS_TYPE":0,"CLASSIFICATION_TYPE":"U","NORAD_CAT_ID":54646,"ELEMENT_SET_NO":999,"REV_AT_EPOCH":16338,"BSTAR":1.2082e-05,"MEAN_MOTION_DOT":1.8e-07,"MEAN_MOTION_DDOT":0.0},{"OBJECT_NAME":"ONEWEB-0545","OBJECT_ID":"2022-166F","EPOCH":"2026-04-16T15:34:24.363840","MEAN_MOTION":13.21823861,"ECCENTRICITY":0.0002003,"INCLINATION":87.9199,"RA_OF_ASC_NODE":256.2379,"ARG_OF_PERICENTER":113.8695,"MEAN_ANOMALY":246.2649,"EPHEMERIS_TYPE":0,"CLASSIFICATION_TYPE":"U","NORAD_CAT_ID":54647,"ELEMENT_SET_NO":999,"REV_AT_EPOCH":16337,"BSTAR":7.122000000000001e-05,"MEAN_MOTION_DOT":4.2e-07,"MEAN_MOTION_DDOT":0.0}]